{
  "type": "FeatureCollection",
  "features": [
    {
      "type": "Feature",
      "properties": {
        "norad_id": 27954,
        "name": "GALAXY 13 (HORIZONS-1)",
        "group": "intelsat",
        "lat": 0.04462630668267319,
        "lon": 87.83214008391076,
        "alt_km": 35795.60240750048,
        "timestamp": "2025-12-26T09:30:53.295841+00:00",
        "meta_object_name": "GALAXY 13 (HORIZONS-1)",
        "meta_object_id": "2003-044A",
        "meta_epoch": "2025-12-26T02:12:38.791296",
        "meta_mean_motion": 1.00272317,
        "meta_eccentricity": 0.0002303,
        "meta_inclination": 0.9714,
        "meta_ra_of_asc_node": 86.2971,
        "meta_arg_of_pericenter": 186.7106,
        "meta_mean_anomaly": 64.9678,
        "meta_ephemeris_type": 0,
        "meta_classification_type": "U",
        "meta_norad_cat_id": 27954,
        "meta_element_set_no": 999,
        "meta_rev_at_epoch": 4483,
        "meta_bstar": 0,
        "meta_mean_motion_dot": 1.54e-06,
        "meta_mean_motion_ddot": 0,
        "tle_line1": "1 27954U 03044A   25360.09211564  .00000154  00000+0  00000+0 0  9990",
        "tle_line2": "2 27954   0.9714  86.2971 0002303 186.7106  64.9678  1.00272317 44832"
      },
      "geometry": {
        "type": "Point",
        "coordinates": [
          87.83214008391076,
          0.04462630668267319
        ]
      }
    },
    {
      "type": "Feature",
      "properties": {
        "norad_id": 28358,
        "name": "INTELSAT 10-02",
        "group": "intelsat",
        "lat": -0.01671638396143171,
        "lon": -123.10273598775383,
        "alt_km": 35783.522046824575,
        "timestamp": "2025-12-26T09:30:53.295853+00:00",
        "meta_object_name": "INTELSAT 10-02",
        "meta_object_id": "2004-022A",
        "meta_epoch": "2025-12-25T22:47:38.488128",
        "meta_mean_motion": 1.0027262,
        "meta_eccentricity": 0.0001104,
        "meta_inclination": 0.0179,
        "meta_ra_of_asc_node": 38.8886,
        "meta_arg_of_pericenter": 258.4848,
        "meta_mean_anomaly": 138.2885,
        "meta_ephemeris_type": 0,
        "meta_classification_type": "U",
        "meta_norad_cat_id": 28358,
        "meta_element_set_no": 999,
        "meta_rev_at_epoch": 7881,
        "meta_bstar": 0,
        "meta_mean_motion_dot": 1.1e-07,
        "meta_mean_motion_ddot": 0,
        "tle_line1": "1 28358U 04022A   25359.94975102  .00000011  00000+0  00000+0 0  9995",
        "tle_line2": "2 28358   0.0179  38.8886 0001104 258.4848 138.2885  1.00272620 78810"
      },
      "geometry": {
        "type": "Point",
        "coordinates": [
          -123.10273598775383,
          -0.01671638396143171
        ]
      }
    },
    {
      "type": "Feature",
      "properties": {
        "norad_id": 28626,
        "name": "XM-3 (RHYTHM)",
        "group": "intelsat",
        "lat": -0.10616843271420903,
        "lon": -72.80131686661554,
        "alt_km": 36157.02592004864,
        "timestamp": "2025-12-26T09:30:53.295866+00:00",
        "meta_object_name": "XM-3 (RHYTHM)",
        "meta_object_id": "2005-008A",
        "meta_epoch": "2025-12-25T21:53:38.819040",
        "meta_mean_motion": 0.98950334,
        "meta_eccentricity": 0.0002225,
        "meta_inclination": 0.2066,
        "meta_ra_of_asc_node": 82.2869,
        "meta_arg_of_pericenter": 272.6004,
        "meta_mean_anomaly": 119.8578,
        "meta_ephemeris_type": 0,
        "meta_classification_type": "U",
        "meta_norad_cat_id": 28626,
        "meta_element_set_no": 999,
        "meta_rev_at_epoch": 4088,
        "meta_bstar": 0,
        "meta_mean_motion_dot": 8.9e-07,
        "meta_mean_motion_ddot": 0,
        "tle_line1": "1 28626U 05008A   25359.91225485  .00000089  00000+0  00000+0 0  9992",
        "tle_line2": "2 28626   0.2066  82.2869 0002225 272.6004 119.8578  0.98950334 40887"
      },
      "geometry": {
        "type": "Point",
        "coordinates": [
          -72.80131686661554,
          -0.10616843271420903
        ]
      }
    },
    {
      "type": "Feature",
      "properties": {
        "norad_id": 28659,
        "name": "DIRECTV 8",
        "group": "intelsat",
        "lat": 0.02670741282433577,
        "lon": 118.80827956565982,
        "alt_km": 35798.8805023412,
        "timestamp": "2025-12-26T09:30:53.295878+00:00",
        "meta_object_name": "DIRECTV 8",
        "meta_object_id": "2005-019A",
        "meta_epoch": "2025-12-26T04:39:38.472192",
        "meta_mean_motion": 1.00271756,
        "meta_eccentricity": 0.0003114,
        "meta_inclination": 0.0128,
        "meta_ra_of_asc_node": 55.1123,
        "meta_arg_of_pericenter": 229.9878,
        "meta_mean_anomaly": 120.7127,
        "meta_ephemeris_type": 0,
        "meta_classification_type": "U",
        "meta_norad_cat_id": 28659,
        "meta_element_set_no": 999,
        "meta_rev_at_epoch": 7533,
        "meta_bstar": 0,
        "meta_mean_motion_dot": 2.3e-07,
        "meta_mean_motion_ddot": 0,
        "tle_line1": "1 28659U 05019A   25360.19419528  .00000023  00000+0  00000+0 0  9993",
        "tle_line2": "2 28659   0.0128  55.1123 0003114 229.9878 120.7127  1.00271756 75331"
      },
      "geometry": {
        "type": "Point",
        "coordinates": [
          118.80827956565982,
          0.02670741282433577
        ]
      }
    },
    {
      "type": "Feature",
      "properties": {
        "norad_id": 28702,
        "name": "GALAXY 28 (G-28)",
        "group": "intelsat",
        "lat": 2.7770045652874757,
        "lon": 156.686662953919,
        "alt_km": 35692.565561523224,
        "timestamp": "2025-12-26T09:30:53.295917+00:00",
        "meta_object_name": "GALAXY 28 (G-28)",
        "meta_object_id": "2005-022A",
        "meta_epoch": "2025-12-25T06:15:34.001280",
        "meta_mean_motion": 1.00599998,
        "meta_eccentricity": 0.0003524,
        "meta_inclination": 2.8519,
        "meta_ra_of_asc_node": 81.1358,
        "meta_arg_of_pericenter": 159.6201,
        "meta_mean_anomaly": 224.7014,
        "meta_ephemeris_type": 0,
        "meta_classification_type": "U",
        "meta_norad_cat_id": 28702,
        "meta_element_set_no": 999,
        "meta_rev_at_epoch": 5023,
        "meta_bstar": 0,
        "meta_mean_motion_dot": -2.29e-06,
        "meta_mean_motion_ddot": 0,
        "tle_line1": "1 28702U 05022A   25359.26081020 -.00000229  00000+0  00000+0 0  9993",
        "tle_line2": "2 28702   2.8519  81.1358 0003524 159.6201 224.7014  1.00599998 50230"
      },
      "geometry": {
        "type": "Point",
        "coordinates": [
          156.686662953919,
          2.7770045652874757
        ]
      }
    },
    {
      "type": "Feature",
      "properties": {
        "norad_id": 29236,
        "name": "GALAXY 16 (G-16)",
        "group": "intelsat",
        "lat": -0.010087132616761715,
        "lon": 138.81879534225914,
        "alt_km": 35795.42140328158,
        "timestamp": "2025-12-26T09:30:53.295942+00:00",
        "meta_object_name": "GALAXY 16 (G-16)",
        "meta_object_id": "2006-023A",
        "meta_epoch": "2025-12-26T02:31:07.100256",
        "meta_mean_motion": 1.00269716,
        "meta_eccentricity": 0.0002789,
        "meta_inclination": 0.0031,
        "meta_ra_of_asc_node": 236.6116,
        "meta_arg_of_pericenter": 40.0302,
        "meta_mean_anomaly": 116.978,
        "meta_ephemeris_type": 0,
        "meta_classification_type": "U",
        "meta_norad_cat_id": 29236,
        "meta_element_set_no": 999,
        "meta_rev_at_epoch": 7123,
        "meta_bstar": 0,
        "meta_mean_motion_dot": 0,
        "meta_mean_motion_ddot": 0,
        "tle_line1": "1 29236U 06023A   25360.10494329  .00000000  00000+0  00000+0 0  9999",
        "tle_line2": "2 29236   0.0031 236.6116 0002789  40.0302 116.9780  1.00269716 71235"
      },
      "geometry": {
        "type": "Point",
        "coordinates": [
          138.81879534225914,
          -0.010087132616761715
        ]
      }
    },
    {
      "type": "Feature",
      "properties": {
        "norad_id": 29494,
        "name": "DIRECTV 9S",
        "group": "intelsat",
        "lat": 1.6038291034436418,
        "lon": 136.6181117445399,
        "alt_km": 35796.308994252344,
        "timestamp": "2025-12-26T09:30:53.295958+00:00",
        "meta_object_name": "DIRECTV 9S",
        "meta_object_id": "2006-043A",
        "meta_epoch": "2025-12-26T01:32:00.300768",
        "meta_mean_motion": 1.00271558,
        "meta_eccentricity": 0.0003053,
        "meta_inclination": 1.9726,
        "meta_ra_of_asc_node": 83.07,
        "meta_arg_of_pericenter": 196.9132,
        "meta_mean_anomaly": 96.6295,
        "meta_ephemeris_type": 0,
        "meta_classification_type": "U",
        "meta_norad_cat_id": 29494,
        "meta_element_set_no": 999,
        "meta_rev_at_epoch": 4964,
        "meta_bstar": 0,
        "meta_mean_motion_dot": -9.2e-07,
        "meta_mean_motion_ddot": 0,
        "tle_line1": "1 29494U 06043A   25360.06389237 -.00000092  00000+0  00000+0 0  9995",
        "tle_line2": "2 29494   1.9726  83.0700 0003053 196.9132  96.6295  1.00271558 49644"
      },
      "geometry": {
        "type": "Point",
        "coordinates": [
          136.6181117445399,
          1.6038291034436418
        ]
      }
    }
  ]
}